[{"OBJECT_NAME":"JILIN-1 GAOFEN 03D48","OBJECT_ID":"2022-167P","EPOCH":"2026-03-09T23:48:37.804608","MEAN_MOTION":15.32947339,"ECCENTRICITY":0.00075954,"INCLINATION":97.6781,"RA_OF_ASC_NODE":234.4968,"ARG_OF_PERICENTER":111.3084,"MEAN_ANOMALY":248.8969,"EPHEMERIS_TYPE":0,"CLASSIFICATION_TYPE":"U","NORAD_CAT_ID":54695,"ELEMENT_SET_NO":999,"REV_AT_EPOCH":18018,"BSTAR":0.00049677114,"MEAN_MOTION_DOT":0.00015755,"MEAN_MOTION_DDOT":0},{"OBJECT_NAME":"STARLINK-34242","OBJECT_ID":"2025-144D","EPOCH":"2026-03-09T14:16:25.231008","MEAN_MOTION":15.30191851,"ECCENTRICITY":9.09e-5,"INCLINATION":53.1578,"RA_OF_ASC_NODE":181.7478,"ARG_OF_PERICENTER":75.9215,"MEAN_ANOMALY":284.1886,"EPHEMERIS_TYPE":0,"CLASSIFICATION_TYPE":"U","NORAD_CAT_ID":64727,"ELEMENT_SET_NO":999,"REV_AT_EPOCH":3969,"BSTAR":0.00092478,"MEAN_MOTION_DOT":0.00027123,"MEAN_MOTION_DDOT":0}]
